ONEWEB-0055             
1 45443U 20020V   21058.58334491 -.00046269  00000-0 -13119+0 0  9990
2 45443  87.8845  45.8274 0001995  84.7162 138.3835 13.11443509  1715
ONEWEB-0093             
1 45444U 20020W   21058.58334491 -.00042722  00000-0 -12108+0 0  9998
2 45444  87.8857  45.8834 0001801  94.1159 312.4868 13.11449005  1727
ONEWEB-0029             
1 45445U 20020X   21058.58334491 -.00046126  00000-0 -13078+0 0  9998
2 45445  87.8872  45.8652 0001877  85.5826 144.8963 13.11444236  1725
ONEWEB-0068             
1 45446U 20020Y   21058.58334491 -.00043510  00000-0 -12334+0 0  9997
2 45446  87.8861  45.8830 0002580  93.1702 343.0121 13.11438664  1729
ONEWEB-0046             
1 45447U 20020Z   21058.58334491 -.00044002  00000-0 -12474+0 0  9990
2 45447  87.8866  45.8861 0001972  94.2259 356.6501 13.11439851  1723
ONEWEB-0063             
1 45448U 20020AA  21058.58334491 -.00045772  00000-0 -12978+0 0  9995
2 45448  87.8862  45.9048 0002088 106.5111 138.7444 13.11440898  1718
ONEWEB-0019             
1 45449U 20020AB  21058.58334491 -.00043285  00000-0 -12270+0 0  9998
2 45449  87.8865  45.8567 0001897  85.7653 343.0812 13.11439302  1700
ONEWEB-0094             
1 45450U 20020AC  21058.58334491 -.01464261  00000-0 -68199+0 0  9993
2 45450  87.7381  31.9062 0028068 139.9334 359.1822 14.23841688  1759
ONEWEB-0087             
1 45451U 20020AD  21058.58334491 -.00046382  00000-0 -13151+0 0  9991
2 45451  87.8878  45.8847 0001883  85.3790 130.3830 13.11444048  1712
ONEWEB-0082             
1 45452U 20020AE  21058.58334491 -.00046470  00000-0 -13176+0 0  9997
2 45452  87.8860  45.8547 0002182  87.7602 120.6498 13.11444997  1739
ONEWEB-0050             
1 45453U 20020AF  21058.58334491 -.00052716  00000-0 -48438-2 0  9990
2 45453  87.5435  30.0524 0027962 132.5957 275.7741 14.94887890  1784
ONEWEB-0034             
1 45454U 20020AG  21058.58334491 -.00045997  00000-0 -13041+0 0  9993
2 45454  87.8872  45.8778 0001955  96.0639  53.5357 13.11445563  1727
ONEWEB-0060             
1 45455U 20020AH  21058.58334491 -.00045089  00000-0 -12783+0 0  9998
2 45455  87.8872  45.8692 0001968  91.3183  28.9466 13.11442262  1718
ONEWEB-0086             
1 45456U 20020AJ  21058.58334491 -.00042892  00000-0 -12158+0 0  9994
2 45456  87.8859  45.8680 0002011  93.7943 320.2778 13.11439644  1726
ONEWEB-0088             
1 45457U 20020AK  21058.58334491 -.00045796  00000-0 -12984+0 0  9998
2 45457  87.8868  45.9035 0001970  95.6046  46.6570 13.11444344  1711
ONEWEB-0102             
1 47258U 20100A   21058.58334491 -.01099424  00000-0 -75881+0 0  9991
2 47258  87.6342  16.7813 0011025  42.0911 308.0964 14.02814596  1753
ONEWEB-0109             
1 47259U 20100B   21058.58334491 -.01250103  00000-0 -95251+0 0  9998
2 47259  87.5332  16.6446 0011104  44.0191 227.3505 13.97109078  1729
ONEWEB-0110             
1 47260U 20100C   21058.58334491 -.00031293  00000-0 -20904-1 0  9991
2 47260  87.6176  16.7644 0010490  42.0901 290.6884 14.01278247  1727
ONEWEB-0111             
1 47261U 20100D   21058.58334491 -.01254511  00000-0 -96947+0 0  9991
2 47261  87.5194  16.4989 0011814  44.0123 230.8350 13.96312900  1749
ONEWEB-0114             
1 47262U 20100E   21058.58334491 -.01130871  00000-0 -94605+0 0  9993
2 47262  87.4763  16.4838 0011297  31.0580  80.5207 13.91979760  1730
ONEWEB-0117             
1 47263U 20100F   21058.58334491  .00000016  00000-0  00000-0 0  9995
2 47263  87.4819  16.5488 0012069  48.2163 306.6506 13.90108463  1748
ONEWEB-0118             
1 47264U 20100G   21058.58334491 -.01135200  00000-0 -72986+0 0  9994
2 47264  87.6628  16.7902 0013432  32.5902 139.8759 14.06304874  1720
ONEWEB-0119             
1 47265U 20100H   21058.58334491 -.00501931  00000-0 -37302+0 0  9995
2 47265  87.6173  16.7652 0014973  33.4765  79.5438 13.97692245  1743
ONEWEB-0120             
1 47266U 20100J   21058.58334491 -.01328464  00000-0 -97204+0 0  9992
2 47266  87.6279  16.7860 0011665  44.5612 156.1853 13.99623108  1726
ONEWEB-0121             
1 47267U 20100K   21058.58334491 -.00030451  00000-0 -21653-1 0  9995
2 47267  87.5228  16.5549 0014603  45.7663   7.3003 13.97750969  1746
ONEWEB-0122             
1 47268U 20100L   21058.58334491 -.00945785  00000-0 -76421+0 0  9992
2 47268  87.4848  16.5017 0010579  39.8203  96.9110 13.93370968  1742
ONEWEB-0123             
1 47269U 20100M   21058.58334491 -.00031781  00000-0 -22914-1 0  9995
2 47269  87.6015  16.7494 0010296  40.1979 270.3307 13.97002874  1752
ONEWEB-0124             
1 47270U 20100N   21058.58334491  .00000017  00000-0  00000-0 0  9994
2 47270  87.4930  16.6880 0011356  31.8681 113.4962 13.95653723  1725
ONEWEB-0125             
1 47271U 20100P   21058.58334491 -.00031900  00000-0 -22918-1 0  9995
2 47271  87.5328  16.6780 0010880  33.5997 270.5673 13.97202631  1721
ONEWEB-0126             
1 47272U 20100Q   21058.58334491  .00000017  00000-0  00000-0 0  9996
2 47272  87.6333  16.8004 0010293  26.6541  19.7596 13.98984541  1732
ONEWEB-0127             
1 47273U 20100R   21058.58334491 -.01100978  00000-0 -66936+0 0  9996
2 47273  87.6785  16.7872 0012837  34.9646  32.4675 14.09841682  1731
ONEWEB-0128             
1 47274U 20100S   21058.58334491 -.01200796  00000-0 -76412+0 0  9996
2 47274  87.6839  16.7932 0012391  12.6263 307.8109 14.07065875  1722
ONEWEB-0129             
1 47275U 20100T   21058.58334491 -.00033269  00000-0 -23805-1 0  9995
2 47275  87.5874  16.7399 0013484  43.0496 228.1276 13.97424469  1746
ONEWEB-0130             
1 47276U 20100U   21058.58334491 -.00034988  00000-0 -25356-1 0  9998
2 47276  87.5857  16.7944 0010019  30.0110 150.9829 13.96737100  1726
ONEWEB-0131             
1 47277U 20100V   21058.58334491  .00000017  00000-0  00000-0 0  9991
2 47277  87.6285  16.7421 0009008  35.5576 237.6183 13.99738403  1754
ONEWEB-0132             
1 47278U 20100W   21058.58334491 -.00227887  00000-0 -16706+0 0  9999
2 47278  87.5187  16.6183 0010887  45.1288 111.1583 13.97493085  1744
ONEWEB-0133             
1 47279U 20100X   21058.58334491 -.01136144  00000-0 -76838+0 0  9998
2 47279  87.6469  16.8236 0013886  30.7117 112.3279 14.03491169  1815
ONEWEB-0134             
1 47280U 20100Y   21058.58334491 -.01075688  00000-0 -72061+0 0  9999
2 47280  87.6277  16.7972 0014460  40.4263  47.0389 14.04380876  1751
ONEWEB-0135             
1 47281U 20100Z   21058.58334491 -.01092313  00000-0 -71953+0 0  9993
2 47281  87.6511  16.7836 0013664  16.9776  61.1632 14.05378714  1740
ONEWEB-0136             
1 47282U 20100AA  21058.58334491 -.00031199  00000-0 -22651-1 0  9991
2 47282  87.5977  16.7746 0010064  36.6058 292.5376 13.96608736  1721
ONEWEB-0137             
1 47283U 20100AB  21058.58334491 -.01121569  00000-0 -89534+0 0  9995
2 47283  87.5088  16.6206 0012584  29.8106 244.0603 13.94635179  1715
ONEWEB-0138             
1 47284U 20100AC  21058.58334491 -.00032208  00000-0 -22581-1 0  9997
2 47284  87.5606  16.5593 0013592  41.0373  60.3374 13.98562354  1725
ONEWEB-0139             
1 47285U 20100AD  21058.58334491 -.01134206  00000-0 -76902+0 0  9994
2 47285  87.6300  16.8302 0011923  17.0814 116.6660 14.03356454  1731
ONEWEB-0140             
1 47286U 20100AE  21058.58334491 -.01041221  00000-0 -60001+0 0  9992
2 47286  87.7167  16.6782 0012382  47.1485 166.9877 14.12574069  1756
ONEWEB-0141             
1 47287U 20100AF  21058.58334491 -.01094501  00000-0 -75688+0 0  9999
2 47287  87.6629  16.6988 0013026  27.5064 316.1742 14.02677616  1759
ONEWEB-0142             
1 47288U 20100AG  21058.58334491 -.00034261  00000-0 -24622-1 0  9990
2 47288  87.6214  16.7996 0009065  33.4980 210.5711 13.97208574  1750
ONEWEB-0143             
1 47289U 20100AH  21058.58334491 -.00031276  00000-0 -22453-1 0  9994
2 47289  87.5377  16.6677 0014974  45.1744 277.7155 13.97214695  1756
ONEWEB-0144             
1 47290U 20100AJ  21058.58334491 -.00033607  00000-0 -24097-1 0  9992
2 47290  87.5232  16.6397 0011262  49.7365  17.3057 13.97322195  1735
ONEWEB-0145             
1 47291U 20100AK  21058.58334491 -.01152370  00000-0 -61033+0 0  9992
2 47291  87.7246  16.7422 0013283  12.9142 344.3772 14.16923274  1737
ONEWEB-0146             
1 47292U 20100AL  21058.58334491 -.01325967  00000-0 -94834+0 0  9992
2 47292  87.6411  16.7190 0014050  35.0766 335.9690 14.00887718  1734
ONEWEB-0147             
1 47293U 20100AM  21058.58334491  .00000017  00000-0  00000-0 0  9999
2 47293  87.5376  16.6757 0012099  31.0116 239.3495 13.96434350  1721
